[{"OBJECT_NAME":"SKYSAT-C9","OBJECT_ID":"2017-068C","EPOCH":"2026-03-09T21:47:44.094336","MEAN_MOTION":15.38897151,"ECCENTRICITY":0.00098921,"INCLINATION":97.4262,"RA_OF_ASC_NODE":205.0589,"ARG_OF_PERICENTER":132.0246,"MEAN_ANOMALY":228.1843,"EPHEMERIS_TYPE":0,"CLASSIFICATION_TYPE":"U","NORAD_CAT_ID":42989,"ELEMENT_SET_NO":999,"REV_AT_EPOCH":46747,"BSTAR":0.00044631703,"MEAN_MOTION_DOT":0.00017138,"MEAN_MOTION_DDOT":0},{"OBJECT_NAME":"FLOCK 4BE-25","OBJECT_ID":"2024-149V","EPOCH":"2026-03-09T18:30:08.620704","MEAN_MOTION":15.3601114,"ECCENTRICITY":0.00017232,"INCLINATION":97.3839,"RA_OF_ASC_NODE":151.4375,"ARG_OF_PERICENTER":216.9138,"MEAN_ANOMALY":143.1988,"EPHEMERIS_TYPE":0,"CLASSIFICATION_TYPE":"U","NORAD_CAT_ID":60487,"ELEMENT_SET_NO":999,"REV_AT_EPOCH":8696,"BSTAR":0.00050937903,"MEAN_MOTION_DOT":0.00017801,"MEAN_MOTION_DDOT":0}]
